COSMOS 1892             
1 18421U 87088A   20366.72959552  .00000781  00000-0  37333-4 0  9997
2 18421  82.5004  78.2808 0016590 100.4188 259.8917 15.17406357814466
SL-14 R/B               
1 18749U 88001B   20366.73713979  .00000090  00000-0  80160-5 0  9998
2 18749  82.5134 172.7621 0019026  12.7898 357.6713 14.83240636761118
COSMOS 1933             
1 18958U 88020A   21001.22195833  .00000805  00000-0  56420-4 0  9990
2 18958  82.5304 294.5977 0010919 191.5644 168.5333 15.03833138764807
SL-3 R/B                
1 19046U 88032B   21001.28827158 -.00000354  00000-0 -21717-4 0  9992
2 19046  97.3929  19.4767 0034944 251.8274 107.9146 15.02829317766676
SL-16 R/B               
1 19120U 88039B   21001.03161835 -.00000003  00000-0  21307-4 0  9993
2 19120  71.0154 111.0332 0021948 358.1643   1.9398 14.19218188689688
COSMOS 1953             
1 19210U 88050A   20366.84404291  .00000088  00000-0  39634-5 0  9999
2 19210  82.5155 218.2046 0014017 157.4975 202.6870 15.06127575751372
SL-8 R/B                
1 19257U 88053B   20366.76005096  .00000076  00000-0  34221-4 0  9997
2 19257  74.0490 358.1858 0021793 287.2078 245.7266 14.37497914704354
COSMOS 1975             
1 19573U 88093A   20366.96281112  .00000595  00000-0  39811-4 0  9995
2 19573  82.5197 172.8586 0013644 205.0240 155.0327 15.05033477733211
SL-14 R/B               
1 19574U 88093B   21001.00177719  .00000086  00000-0  74920-5 0  9991
2 19574  82.5313  15.3185 0021937 166.5726 223.8692 14.83351853720156
SL-16 R/B               
1 19650U 88102B   21001.17138348 -.00000084  00000-0 -18177-4 0  9991
2 19650  70.9977 174.1484 0013949   4.3082 355.8159 14.15794963658862
INTERCOSMOS 24          
1 20261U 89080A   20366.94932400  .00000160  00000-0  43935-4 0  9999
2 20261  82.6040 252.4657 1202923 352.1522   6.2124 12.56163188428799
SL-14 R/B               
1 20262U 89080C   21001.04407609  .00000032  00000-0  41102-5 0  9999
2 20262  82.5942 307.3472 1236860 186.5514 171.8009 12.48953401423659
DELTA 2 R/B(1)          
1 20303U 89085B   20366.95837243  .00003729  00000-0  11827-3 0  9999
2 20303  35.6360 209.0586 0091696 133.8947 226.9397 15.28327626698822
DELTA 1 R/B             
1 20323U 89089B   20366.59633876  .00000054  00000-0  23339-4 0  9991
2 20323  97.1151 121.2094 0070894 331.8995  27.8382 14.48376988621402
ARIANE 40 R/B           
1 20443U 90005H   21001.10965322  .00000021  00000-0  21583-4 0  9995
2 20443  98.5525  68.3574 0011499 112.8465 247.3937 14.38111387620520
DELTA 2 R/B(1)          
1 20453U 90008B   20366.92677548  .00002796  00000-0  15616-3 0  9992
2 20453  35.6226 171.5543 0278192 153.9999 207.4987 14.86088076640588
COSMOS 2058             
1 20465U 90010A   21001.22913909  .00000465  00000-0  36981-4 0  9992
2 20465  82.4896  83.0332 0013944 252.2648 107.7053 14.98115642657939
SL-14 R/B               
1 20466U 90010B   21001.38535797  .00000098  00000-0  94556-5 0  9990
2 20466  82.5030 241.5306 0021697  50.0692 310.2424 14.81405968648039
SL-14 R/B               
1 20511U 90018B   20366.79641397  .00000082  00000-0  77625-5 0  9992
2 20511  82.5221 189.3517 0017251 185.8326 184.8509 14.80061347642308
HST                     
1 20580U 90037B   20366.66257014  .00000653  00000-0  28655-4 0  9996
2 20580  28.4700  95.2006 0002917  57.5697  58.4242 15.09525154485748
SL-16 R/B               
1 20625U 90046B   20366.85554290 -.00000300  00000-0 -13076-3 0  9994
2 20625  70.9993 313.8556 0016494 297.4441  62.5003 14.14660383580533
COSMOS 2084             
1 20663U 90055A   20366.88470196  .00000087  00000-0  26447-4 0  9998
2 20663  62.7934 228.9628 0044508 336.1564  23.7467 14.92171932652816
SL-6 R/B(2)             
1 20666U 90055D   20366.83721556 -.00000001  00000-0  18141-4 0  9994
2 20666  62.7847 145.0633 0074855  14.7783 345.5474 14.92416523654753
SL-8 R/B                
1 20775U 90078B   21001.44983682  .00002047  00000-0  99789-4 0  9992
2 20775  82.9270  63.2809 0569017 301.0724  53.5793 14.35140540534139
SL-8 R/B                
1 21088U 91006B   21001.64993714 -.00000015  00000-0 -29925-4 0  9991
2 21088  82.9426 137.8783 0021424 297.4484  73.2243 13.77146773503498
OKEAN-3                 
1 21397U 91039A   21001.23110679  .00000305  00000-0  26797-4 0  9990
2 21397  82.5215 348.6866 0016595 224.1571 135.8326 14.93018500581773
COSMOS 2151             
1 21422U 91042A   20366.34265534  .00000263  00000-0  23300-4 0  9999
2 21422  82.5012  95.4970 0012744 297.9453  62.0476 14.92196678580249
SL-14 R/B               
1 21423U 91042B   21001.04333970  .00000077  00000-0  72247-5 0  9992
2 21423  82.4930 192.2321 0016955 336.6147  23.4293 14.79811171572889
ERS-1                   
1 21574U 91050A   21001.61691112  .00000042  00000-0  28523-4 0  9995
2 21574  98.6258 321.3011 0033989  58.7517 301.6992 14.37775414543594
ARIANE 40 R/B           
1 21610U 91050F   21001.10409611  .00000038  00000-0  25404-4 0  9991
2 21610  98.4450  74.1527 0003773  43.7436  16.6871 14.40929156546167
INTERCOSMOS 25          
1 21819U 91086A   20366.99500560 -.00000783  00000-0 -16226-3 0  9996
2 21819  82.5888   7.9955 1515650 211.0047 139.2336 12.05194736268084
SL-8 R/B                
1 21876U 92008B   21001.37982126  .00000006  00000-0 -92233-5 0  9996
2 21876  82.9265 235.2990 0035381  23.1675 151.4011 13.75669923449081
SL-8 R/B                
1 21938U 92020B   21001.27799617  .00000068  00000-0  54984-4 0  9996
2 21938  82.9307 119.7105 0029431 179.1526 239.0568 13.75292580440865
COSMOS 2219             
1 22219U 92076A   20366.77952308  .00000285  00000-0  17554-3 0  9998
2 22219  71.0607  15.4971 0019482 218.3998 141.5739 14.13654604450700
SL-16 R/B               
1 22220U 92076B   21001.32846745 -.00000245  00000-0 -99186-4 0  9995
2 22220  70.9983 215.0426 0010611 103.3467  69.6723 14.16463505453694
COSMOS 2221             
1 22236U 92080A   21001.46981627  .00000283  00000-0  28074-4 0  9999
2 22236  82.5086 276.5307 0017488  29.0993 331.1195 14.87995115498729
SL-16 R/B               
1 22285U 92093B   21001.09173891 -.00000036  00000-0  60343-5 0  9995
2 22285  71.0211  17.8888 0006134 298.5644  61.4861 14.15048997445282
COSMOS 2228             
1 22286U 92094A   20366.92231851  .00000263  00000-0  25684-4 0  9992
2 22286  82.5199 233.5250 0021928 141.9860 218.2910 14.88214063493812
SL-16 R/B               
1 22566U 93016B   21001.34158512 -.00000310  00000-0 -13563-3 0  9990
2 22566  71.0062 230.3631 0011979 315.0214  44.9938 14.14968595434325
COSMOS 2242             
1 22626U 93024A   20366.98661672  .00000270  00000-0  26575-4 0  9996
2 22626  82.5223 261.6685 0019750 141.3008 218.9629 14.88065609498235
SL-16 R/B               
1 22803U 93059B   21001.36838891  .00000080  00000-0  63654-4 0  9997
2 22803  70.9904  42.1774 0018747 220.5318 139.4411 14.16828238411337
ARIANE 40 R/B           
1 22830U 93061H   20366.90673730 -.00000003  00000-0  15881-4 0  9997
2 22830  98.7396  57.6659 0011985 102.9699 257.2823 14.31463655423070
COSMOS 2278             
1 23087U 94023A   20366.71708933  .00000126  00000-0  91212-4 0  9991
2 23087  71.0532 175.3356 0007821  27.6826 332.4711 14.13824215377075
SL-16 R/B               
1 23088U 94023B   20366.96021722 -.00000075  00000-0 -14165-4 0  9990
2 23088  71.0015  86.5685 0005777 285.7265  74.3220 14.14686517378241
SL-16 R/B               
1 23343U 94074B   20366.74165184  .00000039  00000-0  12853-4 0  9997
2 23343  97.9729  57.7002 0005818 227.3961 199.1055 14.76855542407539
SL-16 R/B               
1 23405U 94077B   20366.12096738 -.00000192  00000-0 -74320-4 0  9998
2 23405  70.9839  16.9475 0002944 215.3217 144.7711 14.15229157348179
ERS-2                   
1 23560U 95021A   20366.94670825  .00001335  00000-0  59584-4 0  9998
2 23560  98.5530 187.7431 0002807 201.4119 158.6997 15.23570046372183
ARIANE 40+ R/B          
1 23561U 95021B   21001.40342013  .00000055  00000-0  33246-4 0  9997
2 23561  98.6999  49.3748 0007412  35.2697 335.2091 14.38002097347023
SL-16 R/B               
1 23705U 95058B   20366.94159716 -.00000037  00000-0  52834-5 0  9991
2 23705  71.0197 194.5947 0010891 133.2544 226.9489 14.15140714299912
SL-16 R/B               
1 24298U 96051B   20366.88329249 -.00000108  00000-0 -32164-4 0  9999
2 24298  70.8371 214.3205 0013340  56.7878 303.4519 14.12481158254238
ORBVIEW 2 (SEASTAR)     
1 24883U 97037A   21001.27192259  .00000038  00000-0  29940-4 0  9991
2 24883  98.6273 119.7623 0001579 219.5978 140.5091 14.33589148237057
SL-16 R/B               
1 25400U 98043G   20366.32347324 -.00000011  00000-0  13743-4 0  9995
2 25400  98.6268 298.7690 0010897 118.1931 242.0351 14.25467471169062
SL-16 R/B               
1 25407U 98045B   20366.95169256  .00000224  00000-0  13826-3 0  9995
2 25407  71.0091 202.5340 0006558  16.6910 343.4428 14.15831656159037
ISS (ZARYA)             
1 25544U 98067A   21001.72438400  .00001262  00000-0  30783-4 0  9998
2 25544  51.6472  86.1057 0001083 176.5883 320.6647 15.49246823262792
SL-8 R/B                
1 25723U 99022C   21001.24964790  .00069119  00000-0  26181-3 0  9993
2 25723  48.4099 350.3790 0000722 200.7686 159.3242 15.86920940208912
CZ-4B R/B               
1 25732U 99025C   20366.82846306 -.00000021  00000-0  11770-4 0  9992
2 25732  98.9244  36.7237 0037456   9.5462 163.7649 14.17686467119788
OKEAN-O                 
1 25860U 99039A   20366.82898437  .00000074  00000-0  18201-4 0  9994
2 25860  98.2001  29.1193 0001021  66.6530 293.4786 14.76702861154649
SL-16 R/B               
1 25861U 99039B   20366.99676567  .00000045  00000-0  13636-4 0  9996
2 25861  98.2090  13.0708 0014468 241.2402 140.9337 14.78612911156817
DELTA 2 R/B             
1 25876U 99041E   21001.40548396 -.00000047  00000-0  31927-4 0  9992
2 25876  51.7651 248.8458 0531014 201.4010 156.3945 14.04493813 96449
